STARLINK-2022           
1 47643U 21012Z   24206.21298900 -.00000190  00000+0  61135-5 0  9996
2 47643  53.0550 195.8404 0001522 100.8451 259.2709 15.06383744190290
